[{"OBJECT_NAME":"PLEIADES 1A","OBJECT_ID":"2011-076F","EPOCH":"2026-03-09T22:28:30.112032","MEAN_MOTION":14.5854003,"ECCENTRICITY":0.00017089,"INCLINATION":98.204,"RA_OF_ASC_NODE":145.3465,"ARG_OF_PERICENTER":88.1046,"MEAN_ANOMALY":20.7914,"EPHEMERIS_TYPE":0,"CLASSIFICATION_TYPE":"U","NORAD_CAT_ID":38012,"ELEMENT_SET_NO":999,"REV_AT_EPOCH":75752,"BSTAR":9.8090711e-5,"MEAN_MOTION_DOT":4.1e-6,"MEAN_MOTION_DDOT":0},{"OBJECT_NAME":"SL-8 DEB","OBJECT_ID":"1982-051F","EPOCH":"2026-03-09T12:44:04.711776","MEAN_MOTION":14.60807109,"ECCENTRICITY":0.00123744,"INCLINATION":73.9896,"RA_OF_ASC_NODE":198.0324,"ARG_OF_PERICENTER":301.1401,"MEAN_ANOMALY":182.4879,"EPHEMERIS_TYPE":0,"CLASSIFICATION_TYPE":"U","NORAD_CAT_ID":18510,"ELEMENT_SET_NO":999,"REV_AT_EPOCH":7459,"BSTAR":0.00061842894,"MEAN_MOTION_DOT":2.995e-5,"MEAN_MOTION_DDOT":0}]
